{
    "type": "FeatureCollection",
    "name": "PowerCo_Priority1 - Imagery_Centres",
    "crs": {
        "type": "name",
        "properties": {
            "name": "urn:ogc:def:crs:OGC:1.3:CRS84"
        }
    },
    "xy_coordinate_resolution": 1e-15,
    "features": [
        {
            "type": "Feature",
            "properties": {
                "Project": "PGRM3365",
                "Proj_Name": "PowerCo Priority 1 2026",
                "Company_Name": "AiDash Inc",
                "SN_No": "SN14592",
                "Description": "NI Powerco Network (BOP/Coromandel) 2026/27 orthos",
                "OrthoGSD_m": 0.25,
                "PointDensity_(points/m2)": null,
                "Area": 0.013
            },
            "geometry": {
                "type": "Point",
                "coordinates": [
                    175.741989322967299,
                    -40.126372578648009
                ]
            }
        }
    ]
}